[{"OBJECT_NAME":"STARLINK-34993","OBJECT_ID":"2025-191L","EPOCH":"2026-03-09T12:49:48.264960","MEAN_MOTION":15.05653231,"ECCENTRICITY":0.00023748,"INCLINATION":97.6031,"RA_OF_ASC_NODE":301.3335,"ARG_OF_PERICENTER":85.0173,"MEAN_ANOMALY":275.1325,"EPHEMERIS_TYPE":0,"CLASSIFICATION_TYPE":"U","NORAD_CAT_ID":65389,"ELEMENT_SET_NO":999,"REV_AT_EPOCH":3024,"BSTAR":0.0002990409,"MEAN_MOTION_DOT":4.257e-5,"MEAN_MOTION_DDOT":0},{"OBJECT_NAME":"TITAN 4B DEB","OBJECT_ID":"2000-047D","EPOCH":"2026-03-09T07:18:39.687264","MEAN_MOTION":14.9350217,"ECCENTRICITY":0.00548001,"INCLINATION":67.9962,"RA_OF_ASC_NODE":173.9856,"ARG_OF_PERICENTER":92.7359,"MEAN_ANOMALY":268.0056,"EPHEMERIS_TYPE":0,"CLASSIFICATION_TYPE":"U","NORAD_CAT_ID":35415,"ELEMENT_SET_NO":999,"REV_AT_EPOCH":6621,"BSTAR":7.6847696e-5,"MEAN_MOTION_DOT":7.12e-6,"MEAN_MOTION_DDOT":0}]
